1 29155U 06018A   11266.39364986 -.00000260  00000-0  10000-3 0  7532
2 29155 000.1146 077.5941 0003399 035.6473 315.4004 01.00264274 19565